#aV2006  6  4  0  0   .00000000      96 DD+AD WGS84 FIT  NGA
## 1378       .00000000   900.00000000 53890  .0000000000000
+   29     1  2  3  4  5  6  7  8  9 10 11 13 14 15 16 17 18
+         19 20 21 22 23 24 25 26 27 28 29 30  0  0  0  0  0
+          0  0  0  0  0  0  0  0  0  0  0  0  0  0  0  0  0
+          0  0  0  0  0  0  0  0  0  0  0  0  0  0  0  0  0
+          0  0  0  0  0  0  0  0  0  0  0  0  0  0  0  0  0
++         0  0  0  0  0  0  0  0  0  0  0  0  0  0  0  0  0
++         0  0  0  0  0  0  0  0  0  0  0  0  0  0  0  0  0
++         0  0  0  0  0  0  0  0  0  0  0  0  0  0  0  0  0
++         0  0  0  0  0  0  0  0  0  0  0  0  0  0  0  0  0
++         0  0  0  0  0  0  0  0  0  0  0  0  0  0  0  0  0
%c cc cc ccc ccc cccc cccc cccc cccc ccccc ccccc ccccc ccccc
%c cc cc ccc ccc cccc cccc cccc cccc ccccc ccccc ccccc ccccc
%f  0.0000000  0.000000000  0.00000000000  0.000000000000000
%f  0.0000000  0.000000000  0.00000000000  0.000000000000000
%i    0    0    0    0      0      0      0      0         0
%i    0    0    0    0      0      0      0      0         0
/*      NGA, ST. LOUIS,MO.                                  
/*   EPHEMERIS COMPUTED FROM  3 DAYS OF DATA                
/* CCCCCCCCCCCCCCCCCCCCCCCCCCCCCCCCCCCCCCCCCCCCCCCCCCCCCCCCC
/* CCCCCCCCCCCCCCCCCCCCCCCCCCCCCCCCCCCCCCCCCCCCCCCCCCCCCCCCC
*  2006  6  4 11  0   .00000000                                                 
P  1 -11332.476570  18964.332781  14901.456769     57.223674                    
V  1 -16374.105346   8829.816863 -24048.086892       .025392                    
P  2   -343.441549 -16419.406522  20655.261111      2.234578                    
V  2  24666.598263  10541.557255   8474.876361       .029788                    
P  3  -4523.537065  20208.777178 -16624.874108    104.049167                    
V  3 -17723.861951  11621.164341  19448.265520       .030267                    
P  4  12517.284137 -10554.828609  20934.275395    246.060669                    
V  4  23679.564621  12226.047377  -7635.078808       .086515                    
P  5 -13258.100334 -18575.329274  13526.699339     83.672921                    
V  5   -309.977114 -17699.795738 -24084.658596       .468530                    
P  6 -21729.325710   2077.133873  15379.551282    551.916269                    
V  6  13903.576761 -13509.051714  21672.126977       .140385                    
P  7 -19540.749371  17863.937095  -2532.067396    540.335567                    
V  7  -5023.581672   -509.382782  30874.218956       .012995                    
P  8  19543.859854  -3642.043426 -17952.250125    -67.863941                    
V  8  19308.168039  11264.678356  18489.066154      -.011596                    
P  9 -19273.223784 -15787.692332 -10149.210975     22.959729                    
V  9  11899.300756   2665.314031 -28014.694961       .015292                    
P 10   -951.692047 -26342.762919   1156.137114     84.486661                    
V 10   2777.843661   1417.612343  32198.639554       .005485                    
P 11  21505.533401  13401.784220  -8431.365558    331.303199                    
V 11 -11407.009816    950.313627 -27555.111506       .024097                    
P 13  21516.676208  -2296.957390  15272.321718     66.864254                    
V 13 -15500.343232  11941.767588  23549.792140       .028735                    
P 14 -21382.155562  15656.082665   1328.477479    -12.669644                    
V 14  -2481.668850   -786.919498 -32284.945771       .007817                    
P 15 -19559.780949   3549.055428 -17964.005644    623.286477                    
V 15 -18824.811319 -12145.891465  17851.059077       .060031                    
P 16  -2766.830929  25483.229652   6824.665903     47.249041                    
V 16  -3384.265506  -8335.768429  30248.952239       .025545                    
P 17  21702.524496 -15219.960309     50.910323     96.827734                    
V 17   1739.145942   2358.814774 -31801.647496       .019063                    
P 18 -15263.559421   -574.067103 -21637.323390   -238.034083                    
V 18  -1229.366541 -27687.257543   1291.120750      -.014939                    
P 19   5558.257429  14351.099376 -21533.688162     -7.276258                    
V 19 -23707.694457  14169.313442   3355.283164       .020857                    
P 20  13063.638977  16428.352143  16199.563091    -25.889447                    
V 20     63.634552  20835.862500 -21028.627463       .005570                    
P 21 -24134.864617  -3282.852215 -11149.219365     33.290107                    
V 21 -11408.090468  -8645.228432  26557.703678       .025233                    
P 22 -12277.804890  14869.044950 -18108.555640    103.024632                    
V 22  -2525.249037 -23247.013955 -17243.829107       .037325                    
P 23  14445.987821   7449.648741  20942.790732    140.199409                    
V 23 -21505.631102  15929.470351   8967.158180      -.006772                    
P 24  20834.773846  -2201.998786  16716.395572     10.873996                    
V 24  17524.494856  11097.777920 -20409.705180       .027427                    
P 25  -6441.582171  14186.847841  21915.393501    206.045399                    
V 25 -25306.580383  -9118.003349  -1430.029021       .807436                    
P 26  -3117.319925 -15157.232789 -21887.551760   -136.046601                    
V 26  22763.797845 -14319.926974   7370.154108      -.120077                    
P 27  24729.586410   2873.794291  -9098.108566     51.864480                    
V 27  10539.324284   6841.796177  28580.212282       .016912                    
P 28  13237.135001 -10842.055592 -19930.712683     25.966736                    
V 28   3105.532082  25901.901968 -12193.746468      -.008320                    
P 29    823.090653 -16930.577415 -20135.561168    614.983536                    
V 29  21826.417804 -14352.001742  13083.699189       .052093                    
P 30 -15547.462807  -6915.028961  20142.453633      -.035189                    
V 30  -2131.514378 -26168.403724 -10366.201892       .002770                    
EOF
